LEMUR-2-STARLIGHT       
1 66783U 25276DY  26193.13254089  .00003887  00000+0  32198-3 0  9996
2 66783  97.5233 262.9182 0014819  56.3195 303.9440 14.99331400 33938
LEMUR-2-TARTIFLETTE     
1 66784U 25276DZ  26193.13091190  .00003551  00000+0  29474-3 0  9990
2 66784  97.5237 262.9245 0013851  64.3329 295.9324 14.99317762 33932
LEMUR-2-VUKASIN         
1 66785U 25276EA  26192.77031164  .00002931  00000+0  23704-3 0  9996
2 66785  97.5240 262.9290 0003577  64.9856 295.1739 15.00527711 33833
LEMUR-2-HOTSPUR-TOM     
1 66786U 25276EB  26192.72465754  .00003174  00000+0  26466-3 0  9996
2 66786  97.5223 262.5077 0013834  56.6609 303.5937 14.99219626 33806
LEMUR-2-MYRA            
1 66787U 25276EC  26192.73562243  .00003600  00000+0  28885-3 0  9990
2 66787  97.5222 262.8153 0018537  64.7520 295.5623 15.00564390 33896
LEMUR-2 FIKRETDENGIZ    
1 67363U 26004A   26192.94107273  .00002681  00000+0  29414-3 0  9999
2 67363  97.8021 191.1219 0010369  65.0256 295.2037 14.88502523 26960
TWILIGHT-1 OBJECT B     
1 67364U 26004B   26192.50585705  .00001025  00000+0  11821-3 0  9996
2 67364  97.8072 190.6963 0009955  56.5620 303.6547 14.87785770 26906
LEMUR-2-MARIO-SOUSA     
1 67365U 26004C   26192.98860386  .00002427  00000+0  26556-3 0  9998
2 67365  97.7995 191.1638 0009995  65.8853 294.3409 14.88710875 26986
LEMUR-2-SONNENBLUME     
1 67367U 26004E   26192.78919712  .00001547  00000+0  17247-3 0  9995
2 67367  97.7998 190.9418 0009558  67.7455 292.4775 14.88442703 26952
LEMUR-2-WOBLER          
1 67368U 26004F   26193.24954228  .00001822  00000+0  20089-3 0  9993
2 67368  97.8046 191.5429 0009651  58.3291 301.8866 14.88685048 27021
LEMUR-2-GRAM-E-SUE      
1 67370U 26004H   26193.24146419  .00001337  00000+0  14939-3 0  9999
2 67370  97.7985 191.4036 0008718  68.8426 291.3722 14.88581148 27027
LEMUR-2-KATIE           
1 67387U 26004AA  26192.93313117  .00002995  00000+0  31446-3 0  9996
2 67387  97.8041 191.6404 0003723  41.3938 318.7561 14.90232655 26994
LEMUR-2-HCS-BAZUS       
1 67388U 26004AB  26192.93151793  .00001771  00000+0  18828-3 0  9997
2 67388  97.8030 191.6175 0003251  40.9364 319.2098 14.90250498 26998
